KUIPER-00027            
1 63740U 25088S   25216.58335648 -.01781086  00000+0 -54730-1 0  9993
2 63740  51.8741 345.9889 0002541 106.4093 106.2679 15.36421712  5287
KUIPER-00028            
1 63741U 25088T   25216.20804569  .00015965  00000+0  42236-3 0  9999
2 63741  51.8708 347.6542 0001755  64.9451 295.1718 15.38548345 15678
KUIPER-00029            
1 63742U 25088U   25216.07416811  .00013417  00000+0  37086-3 0  9991
2 63742  51.8703 348.9831 0004809  98.6113 261.5419 15.37334876 15172
KUIPER-00030            
1 63743U 25088V   25216.58335648 -.00059431  00000+0 -40538-2 0  9999
2 63743  51.8884 352.0633 0012428  81.6555  70.5099 15.05848103  5851
KUIPER-00031            
1 63744U 25088W   25216.58335648 -.00680464  00000+0 -21753-1 0  9993
2 63744  51.8724 346.1939 0003047  76.8643  33.1867 15.34309082  5958
KUIPER-00032            
1 63745U 25088X   25216.58335648 -.00011992  00000+0 -40986-3 0  9999
2 63745  51.8750 346.7157 0005011  67.0904 128.1035 15.28832920  5284
KUIPER-00033            
1 63746U 25088Y   25216.45063147  .00001957  00000+0  28200-3 0  9991
2 63746  51.9021   7.2214 0003241 166.6055 193.4994 14.80501028 15432
KUIPER-00034            
1 63747U 25088Z   25215.76005862  .00013861  00000+0  37369-3 0  9998
2 63747  51.8724 349.9032 0001487  97.4670 262.6486 15.38084684 15297
